COMMENT,ORIGINATOR,NORAD_CAT_ID,OBJECT_NAME,OBJECT_TYPE,CLASSIFICATION_TYPE,INTLDES,EPOCH,EPOCH_MICROSECONDS,MEAN_MOTION,ECCENTRICITY,INCLINATION,RA_OF_ASC_NODE,ARG_OF_PERICENTER,MEAN_ANOMALY,EPHEMERIS_TYPE,ELEMENT_SET_NO,REV_AT_EPOCH,BSTAR,MEAN_MOTION_DOT,MEAN_MOTION_DDOT,FILE,TLE_LINE0,TLE_LINE1,TLE_LINE2,OBJECT_ID,OBJECT_NUMBER,SEMIMAJOR_AXIS,PERIOD,APOGEE,PERIGEE
"GENERATED VIA SPACETRACK.ORG API","JSPOC","39613","EXPRESS AT2","PAYLOAD","U","14010B","2016-01-09 22:11:32","471232","1.0027225","2.25e-05","0.0577","218.4668","201.4024","161.752","0","999","666","0","-2.77e-06","0","1978429","0 EXPRESS AT2","1 39613U 14010B   16009.92468138 -.00000277  00000-0  00000+0 0  9991","2 39613   0.0577 218.4668 0000225 201.4024 161.7520  1.00272250  6669","2014-010B","39613","42164.601","1436.090","35787.415","35785.517"
"GENERATED VIA SPACETRACK.ORG API","JSPOC","7684","COSMOS 717","PAYLOAD","U","75016G","2016-01-09 22:11:32","327808","12.39788873","0.0036268","74.0053","330.5713","231.8212","183.0708","0","999","84946","-0.00015099","-3.6e-07","0","1978726","0 COSMOS 717","1  7684U 75016G   16009.92467972 -.00000036 +00000-0 -15099-3 0  9994","2  7684 074.0053 330.5713 0036268 231.8212 183.0708 12.39788873849466","1975-016G","7684","7885.635","116.148","1536.099","1478.900"
"GENERATED VIA SPACETRACK.ORG API","JSPOC","2176","OPS 0082 (TRANSIT 13)","PAYLOAD","U","66041A","2016-01-09 22:11:34","67040","14.02731335","0.0073634","90.1398","7.6478","274.7454","84.532","0","999","53297","8.9153e-05","1.5e-06","0","1978726","0 OPS 0082 (TRANSIT 13)","1  2176U 66041A   16009.92469985 +.00000150 +00000-0 +89153-4 0  9997","2  2176 090.1398 007.6478 0073634 274.7454 084.5320 14.02731335532973","1966-041A","2176","7262.489","102.656","937.830","830.877"
"GENERATED VIA SPACETRACK.ORG API","JSPOC","21730","COSMOS 2159","PAYLOAD","U","91068C","2016-01-09 22:11:39","411744","12.65951776","0.0013346","82.581","207.1892","331.2166","143.8677","0","999","12197","9.8519e-05","2.9e-07","0","1978726","0 COSMOS 2159","1 21730U 91068C   16009.92476171 +.00000029 +00000-0 +98519-4 0  9997","2 21730 082.5810 207.1892 0013346 331.2166 143.8677 12.65951776121972","1991-068C","21730","7776.611","113.748","1408.855","1388.097"
"GENERATED VIA SPACETRACK.ORG API","JSPOC","23753","SL-6 R/B","ROCKET BODY","U","95072C","2016-01-09 22:11:39","664032","14.26484654","0.0003395","98.8323","330.752","349.7213","60.9327","0","999","4248","2.7406e-05","2.1e-07","0","1978726","0 SL-6 R/B","1 23753U 95072C   16009.92476463 +.00000021 +00000-0 +27406-4 0  9996","2 23753 098.8323 330.7520 0003395 349.7213 060.9327 14.26484654042483","1995-072C","23753","7181.642","100.947","805.945","801.069"
"GENERATED VIA SPACETRACK.ORG API","JSPOC","20740","COSMOS 2095","PAYLOAD","U","90070F","2016-01-09 22:11:43","12032","12.66049155","0.001953","82.571","198.1056","72.3467","91.5619","0","999","17473","0.000141","3.7e-07","0","1978726","0 COSMOS 2095","1 20740U 90070F   16009.92480338 +.00000037 +00000-0 +14100-3 0  9991","2 20740 082.5710 198.1056 0019530 072.3467 091.5619 12.66049155174737","1990-070F","20740","7776.212","113.739","1413.264","1382.890"
"GENERATED VIA SPACETRACK.ORG API","JSPOC","22284","COSMOS 2227","PAYLOAD","U","92093A","2016-01-09 22:11:44","731392","14.13250669","0.0020323","70.9769","254.4866","247.0938","112.8038","0","999","18830","0.00016977","2.71e-06","0","1978726","0 COSMOS 2227","1 22284U 92093A   16009.92482328 +.00000271 +00000-0 +16977-3 0  9998","2 22284 070.9769 254.4866 0020323 247.0938 112.8038 14.13250669188306","1992-093A","22284","7226.406","101.892","862.957","833.585"
"GENERATED VIA SPACETRACK.ORG API","JSPOC","27431","FENGYUN 1D","PAYLOAD","U","02024B","2016-01-09 22:11:44","371968","14.09574165","0.0016242","98.9553","336.6686","119.5124","305.7162","0","999","70248","6.4636e-05","6.9e-07","0","1978726","0 FENGYUN 1D","1 27431U 02024B   16009.92481912 +.00000069 +00000-0 +64636-4 0  9991","2 27431 098.9553 336.6686 0016242 119.5124 305.7162 14.09574165702481","2002-024B","27431","7238.966","102.158","872.588","849.073"
"GENERATED VIA SPACETRACK.ORG API","JSPOC","38771","METOP-B","PAYLOAD","U","12049A","2016-01-09 22:11:45","96","14.21502819","7.2e-05","98.6705","71.5366","52.6207","303.2263","0","999","17179","3.9828e-05","4.4e-07","0","1978726","0 METOP-B","1 38771U 12049A   16009.92482639 +.00000044 +00000-0 +39828-4 0  9993","2 38771 098.6705 071.5366 0000720 052.6207 303.2263 14.21502819171799","2012-049A","38771","7198.411","101.301","820.795","819.758"
"GENERATED VIA SPACETRACK.ORG API","JSPOC","12641","COSMOS 1292","PAYLOAD","U","81074F","2016-01-09 22:11:50","193600","12.48688285","0.000734","74.033","38.045","102.7801","326.282","0","999","56934","0.00012867","3e-08","0","1978726","0 COSMOS 1292","1 12641U 81074F   16009.92488650 +.00000003 +00000-0 +12867-3 0  9992","2 12641 074.0330 038.0450 0007340 102.7801 326.2820 12.48688285569348","1981-074F","12641","7848.123","115.321","1475.748","1464.227"
"GENERATED VIA SPACETRACK.ORG API","JSPOC","25730","FENGYUN 1C","PAYLOAD","U","99025A","2016-01-09 22:11:55","968576","14.13845238","0.0019138","98.9629","339.959","273.604","154.905","0","999","85822","0.00080058","1.474e-05","0","1978726","0 FENGYUN 1C","1 25730U 99025A   16009.92495334 +.00001474 +00000-0 +80058-3 0  9997","2 25730 098.9629 339.9590 0019138 273.6040 154.9050 14.13845238858222","1999-025A","25730","7224.380","101.849","860.071","832.419"
"GENERATED VIA SPACETRACK.ORG API","JSPOC","24892","ARIANE 44P R/B","ROCKET BODY","U","97040B","2016-01-09 22:11:57","586848","3.42212856","0.641806","7.2978","205.5793","131.1551","305.2306","0","999","19019","0.0016303","5.715e-05","0","1978414","0 ARIANE 44P R/B","1 24892U 97040B   16009.92497207  .00005715  00000-0  16303-2 0  9994","2 24892   7.2978 205.5793 6418060 131.1551 305.2306  3.42212856190195","1997-040B","24892","18601.057","420.790","24161.192","284.652"
"GENERATED VIA SPACETRACK.ORG API","JSPOC","23198","APEX R/B","ROCKET BODY","U","94046B","2016-01-09 22:11:59","481600","13.59123398","0.0931909","69.968","283.5818","243.5351","106.7271","0","999","2115","0.00022732","4.299e-05","0","1978726","0 APEX R/B","1 23198U 94046B   16009.92499400 +.00004299 +00000-0 +22732-3 0  9992","2 23198 069.9680 283.5818 0931909 243.5351 106.7271 13.59123398021159","1994-046B","23198","7417.016","105.950","1730.080","347.683"
"GENERATED VIA SPACETRACK.ORG API","JSPOC","22490","SCD 1","PAYLOAD","U","93009B","2016-01-09 22:12:01","35072","14.44406575","0.0043054","24.9705","292.1479","200.6465","227.2464","0","999","20944","2.8951e-05","2.87e-06","0","1978726","0 SCD 1","1 22490U 93009B   16009.92501198 +.00000287 +00000-0 +28951-4 0  9995","2 22490 024.9705 292.1479 0043054 200.6465 227.2464 14.44406575209445","1993-009B","22490","7122.113","99.694","774.641","713.314"
"GENERATED VIA SPACETRACK.ORG API","JSPOC","15077","COSMOS 1577","PAYLOAD","U","84067A","2016-01-09 22:12:03","100032","13.75376058","0.0035556","82.958","146.1742","198.7519","279.3784","0","999","32978","1.6541e-05","3.1e-07","0","1978469","0 COSMOS 1577","1 15077U 84067A   16009.92503588  .00000031  00000-0  16541-4 0  9996","2 15077  82.9580 146.1742 0035556 198.7519 279.3784 13.75376058329787","1984-067A","15077","7358.470","104.698","1006.498","954.171"
"GENERATED VIA SPACETRACK.ORG API","JSPOC","15077","COSMOS 1577","PAYLOAD","U","84067A","2016-01-09 22:12:03","100032","13.75376058","0.0035556","82.958","146.1742","198.7519","279.3784","0","999","32954","1.6541e-05","3.1e-07","0","1978726","0 COSMOS 1577","1 15077U 84067A   16009.92503588 +.00000031 +00000-0 +16541-4 0  9996","2 15077 082.9580 146.1742 0035556 198.7519 279.3784 13.75376058329541","1984-067A","15077","7358.470","104.698","1006.498","954.171"
"GENERATED VIA SPACETRACK.ORG API","JSPOC","11267","SL-14 R/B","ROCKET BODY","U","79011B","2016-01-09 22:12:07","366464","14.88697589","0.001724","82.5243","4.3803","167.8472","192.3166","0","999","97626","2.0399e-05","2.16e-06","0","1978726","0 SL-14 R/B","1 11267U 79011B   16009.92508526 +.00000216 +00000-0 +20399-4 0  9994","2 11267 082.5243 004.3803 0017240 167.8472 192.3166 14.88697589976263","1979-011B","11267","6980.140","96.728","614.039","589.972"
"GENERATED VIA SPACETRACK.ORG API","JSPOC","25860","OKEAN O","PAYLOAD","U","99039A","2016-01-09 22:12:13","949280","14.7625355","0.0001656","98.1232","343.6708","71.182","346.3931","0","999","88637","4.7661e-05","2.78e-06","0","1978726","0 OKEAN O","1 25860U 99039A   16009.92516145 +.00000278 +00000-0 +47661-4 0  9995","2 25860 098.1232 343.6708 0001656 071.1820 346.3931 14.76253550886375","1999-039A","25860","7019.311","97.544","642.339","640.014"
"GENERATED VIA SPACETRACK.ORG API","JSPOC","12980","COSMOS 1325","PAYLOAD","U","81116F","2016-01-09 22:12:23","982048","12.30093687","0.0085957","73.9795","191.9912","284.0691","230.6383","0","999","53188","2.3021e-07","-1.6e-07","0","1978726","0 COSMOS 1325","1 12980U 81116F   16009.92527757 -.00000016 +00000-0 +23021-6 0  9999","2 12980 073.9795 191.9912 0085957 284.0691 230.6383 12.30093687531887","1981-116F","12980","7927.015","117.064","1617.018","1480.742"
"GENERATED VIA SPACETRACK.ORG API","JSPOC","16909","JAS 1 (FUJI 1)","PAYLOAD","U","86061B","2016-01-09 22:12:24","396768","12.44464987","0.001114","50.0173","350.5593","185.8289","198.3136","0","999","33752","-1.2783e-05","-9.9e-07","0","1978726","0 JAS 1 (FUJI 1)","1 16909U 86061B   16009.92528237 -.00000099 +00000-0 -12783-4 0  9995","2 16909 050.0173 350.5593 0011140 185.8289 198.3136 12.44464987337521","1986-061B","16909","7865.869","115.712","1496.496","1478.971"
